ORBCOMM FM37            
1 33064U 08031E   24119.50957081  .00002766  00000+0  42360-3 0  9998
2 33064  48.4379 149.8970 0005682  33.2317 120.3955 14.76336521852706
ORBCOMM FM40            
1 33065U 08031F   24119.79006748  .00003254  00000+0  47863-3 0  9991
2 33065  48.4403 138.0563 0006936  44.8451 125.1872 14.77638816853225
VESSELSAT 1             
1 37840U 11058C   24119.55112524  .00000494  00000+0  12515-3 0  9992
2 37840  19.9613  82.4445 0013542 306.7553  53.1608 14.11145187647894
ORBCOMM FM109           
1 40086U 14040A   24119.50295429  .00001529  00000+0  37739-3 0  9998
2 40086  47.0012 172.4548 0002532 234.7195 125.3454 14.56552741520571
ORBCOMM FM107           
1 40087U 14040B   24119.53727189  .00001530  00000+0  37743-3 0  9992
2 40087  47.0026 173.2573 0001625 219.8018 140.2748 14.56559975520651
ORBCOMM FM106           
1 40088U 14040C   24119.47784940  .00002913  00000+0  54628-3 0  9991
2 40088  47.0613  27.5589 0018396 301.3937  58.5153 14.66963575522538
ORBCOMM FM111           
1 40089U 14040D   24119.55972738  .00004582  00000+0  59667-3 0  9997
2 40089  47.0032 289.5892 0032510  11.6229 348.5409 14.81662036528649
ORBCOMM FM104           
1 40090U 14040E   24119.49606319  .00001596  00000+0  40432-3 0  9993
2 40090  47.0032 202.2298 0016162 112.6762 247.5833 14.55088254520198
