<?xml version="1.0" encoding="UTF-8"?>
<ndm xmlns:xsi="http://www.w3.org/2001/XMLSchema-instance" xsi:noNamespaceSchemaLocation="https://sanaregistry.org/r/ndmxml_unqualified/ndmxml-2.0.0-master-2.0.xsd">
<omm id="CCSDS_OMM_VERS" version="2.0">
<header><CREATION_DATE/><ORIGINATOR/></header><body><segment><metadata><OBJECT_NAME>ORBCOMM FM37</OBJECT_NAME><OBJECT_ID>2008-031E</OBJECT_ID><CENTER_NAME>EARTH</CENTER_NAME><REF_FRAME>TEME</REF_FRAME><TIME_SYSTEM>UTC</TIME_SYSTEM><MEAN_ELEMENT_THEORY>SGP4</MEAN_ELEMENT_THEORY></metadata><data><meanElements><EPOCH>2024-04-28T12:13:46.917984</EPOCH><MEAN_MOTION>14.76336521</MEAN_MOTION><ECCENTRICITY>.0005682</ECCENTRICITY><INCLINATION>48.4379</INCLINATION><RA_OF_ASC_NODE>149.8970</RA_OF_ASC_NODE><ARG_OF_PERICENTER>33.2317</ARG_OF_PERICENTER><MEAN_ANOMALY>120.3955</MEAN_ANOMALY></meanElements><tleParameters><EPHEMERIS_TYPE>0</EPHEMERIS_TYPE><CLASSIFICATION_TYPE>U</CLASSIFICATION_TYPE><NORAD_CAT_ID>33064</NORAD_CAT_ID><ELEMENT_SET_NO>999</ELEMENT_SET_NO><REV_AT_EPOCH>85270</REV_AT_EPOCH><BSTAR>.4236E-3</BSTAR><MEAN_MOTION_DOT>.2766E-4</MEAN_MOTION_DOT><MEAN_MOTION_DDOT>0</MEAN_MOTION_DDOT></tleParameters></data></segment></body></omm>
<omm id="CCSDS_OMM_VERS" version="2.0">
<header><CREATION_DATE/><ORIGINATOR/></header><body><segment><metadata><OBJECT_NAME>ORBCOMM FM40</OBJECT_NAME><OBJECT_ID>2008-031F</OBJECT_ID><CENTER_NAME>EARTH</CENTER_NAME><REF_FRAME>TEME</REF_FRAME><TIME_SYSTEM>UTC</TIME_SYSTEM><MEAN_ELEMENT_THEORY>SGP4</MEAN_ELEMENT_THEORY></metadata><data><meanElements><EPOCH>2024-04-28T18:57:41.830272</EPOCH><MEAN_MOTION>14.77638816</MEAN_MOTION><ECCENTRICITY>.0006936</ECCENTRICITY><INCLINATION>48.4403</INCLINATION><RA_OF_ASC_NODE>138.0563</RA_OF_ASC_NODE><ARG_OF_PERICENTER>44.8451</ARG_OF_PERICENTER><MEAN_ANOMALY>125.1872</MEAN_ANOMALY></meanElements><tleParameters><EPHEMERIS_TYPE>0</EPHEMERIS_TYPE><CLASSIFICATION_TYPE>U</CLASSIFICATION_TYPE><NORAD_CAT_ID>33065</NORAD_CAT_ID><ELEMENT_SET_NO>999</ELEMENT_SET_NO><REV_AT_EPOCH>85322</REV_AT_EPOCH><BSTAR>.47863E-3</BSTAR><MEAN_MOTION_DOT>.3254E-4</MEAN_MOTION_DOT><MEAN_MOTION_DDOT>0</MEAN_MOTION_DDOT></tleParameters></data></segment></body></omm>
<omm id="CCSDS_OMM_VERS" version="2.0">
<header><CREATION_DATE/><ORIGINATOR/></header><body><segment><metadata><OBJECT_NAME>VESSELSAT 1</OBJECT_NAME><OBJECT_ID>2011-058C</OBJECT_ID><CENTER_NAME>EARTH</CENTER_NAME><REF_FRAME>TEME</REF_FRAME><TIME_SYSTEM>UTC</TIME_SYSTEM><MEAN_ELEMENT_THEORY>SGP4</MEAN_ELEMENT_THEORY></metadata><data><meanElements><EPOCH>2024-04-28T13:13:37.220736</EPOCH><MEAN_MOTION>14.11145187</MEAN_MOTION><ECCENTRICITY>.0013542</ECCENTRICITY><INCLINATION>19.9613</INCLINATION><RA_OF_ASC_NODE>82.4445</RA_OF_ASC_NODE><ARG_OF_PERICENTER>306.7553</ARG_OF_PERICENTER><MEAN_ANOMALY>53.1608</MEAN_ANOMALY></meanElements><tleParameters><EPHEMERIS_TYPE>0</EPHEMERIS_TYPE><CLASSIFICATION_TYPE>U</CLASSIFICATION_TYPE><NORAD_CAT_ID>37840</NORAD_CAT_ID><ELEMENT_SET_NO>999</ELEMENT_SET_NO><REV_AT_EPOCH>64789</REV_AT_EPOCH><BSTAR>.12515E-3</BSTAR><MEAN_MOTION_DOT>.494E-5</MEAN_MOTION_DOT><MEAN_MOTION_DDOT>0</MEAN_MOTION_DDOT></tleParameters></data></segment></body></omm>
<omm id="CCSDS_OMM_VERS" version="2.0">
<header><CREATION_DATE/><ORIGINATOR/></header><body><segment><metadata><OBJECT_NAME>ORBCOMM FM109</OBJECT_NAME><OBJECT_ID>2014-040A</OBJECT_ID><CENTER_NAME>EARTH</CENTER_NAME><REF_FRAME>TEME</REF_FRAME><TIME_SYSTEM>UTC</TIME_SYSTEM><MEAN_ELEMENT_THEORY>SGP4</MEAN_ELEMENT_THEORY></metadata><data><meanElements><EPOCH>2024-04-28T12:04:15.250656</EPOCH><MEAN_MOTION>14.56552741</MEAN_MOTION><ECCENTRICITY>.0002532</ECCENTRICITY><INCLINATION>47.0012</INCLINATION><RA_OF_ASC_NODE>172.4548</RA_OF_ASC_NODE><ARG_OF_PERICENTER>234.7195</ARG_OF_PERICENTER><MEAN_ANOMALY>125.3454</MEAN_ANOMALY></meanElements><tleParameters><EPHEMERIS_TYPE>0</EPHEMERIS_TYPE><CLASSIFICATION_TYPE>U</CLASSIFICATION_TYPE><NORAD_CAT_ID>40086</NORAD_CAT_ID><ELEMENT_SET_NO>999</ELEMENT_SET_NO><REV_AT_EPOCH>52057</REV_AT_EPOCH><BSTAR>.37739E-3</BSTAR><MEAN_MOTION_DOT>.1529E-4</MEAN_MOTION_DOT><MEAN_MOTION_DDOT>0</MEAN_MOTION_DDOT></tleParameters></data></segment></body></omm>
<omm id="CCSDS_OMM_VERS" version="2.0">
<header><CREATION_DATE/><ORIGINATOR/></header><body><segment><metadata><OBJECT_NAME>ORBCOMM FM107</OBJECT_NAME><OBJECT_ID>2014-040B</OBJECT_ID><CENTER_NAME>EARTH</CENTER_NAME><REF_FRAME>TEME</REF_FRAME><TIME_SYSTEM>UTC</TIME_SYSTEM><MEAN_ELEMENT_THEORY>SGP4</MEAN_ELEMENT_THEORY></metadata><data><meanElements><EPOCH>2024-04-28T12:53:40.291296</EPOCH><MEAN_MOTION>14.56559975</MEAN_MOTION><ECCENTRICITY>.0001625</ECCENTRICITY><INCLINATION>47.0026</INCLINATION><RA_OF_ASC_NODE>173.2573</RA_OF_ASC_NODE><ARG_OF_PERICENTER>219.8018</ARG_OF_PERICENTER><MEAN_ANOMALY>140.2748</MEAN_ANOMALY></meanElements><tleParameters><EPHEMERIS_TYPE>0</EPHEMERIS_TYPE><CLASSIFICATION_TYPE>U</CLASSIFICATION_TYPE><NORAD_CAT_ID>40087</NORAD_CAT_ID><ELEMENT_SET_NO>999</ELEMENT_SET_NO><REV_AT_EPOCH>52065</REV_AT_EPOCH><BSTAR>.37743E-3</BSTAR><MEAN_MOTION_DOT>.153E-4</MEAN_MOTION_DOT><MEAN_MOTION_DDOT>0</MEAN_MOTION_DDOT></tleParameters></data></segment></body></omm>
<omm id="CCSDS_OMM_VERS" version="2.0">
<header><CREATION_DATE/><ORIGINATOR/></header><body><segment><metadata><OBJECT_NAME>ORBCOMM FM106</OBJECT_NAME><OBJECT_ID>2014-040C</OBJECT_ID><CENTER_NAME>EARTH</CENTER_NAME><REF_FRAME>TEME</REF_FRAME><TIME_SYSTEM>UTC</TIME_SYSTEM><MEAN_ELEMENT_THEORY>SGP4</MEAN_ELEMENT_THEORY></metadata><data><meanElements><EPOCH>2024-04-28T11:28:06.188160</EPOCH><MEAN_MOTION>14.66963575</MEAN_MOTION><ECCENTRICITY>.0018396</ECCENTRICITY><INCLINATION>47.0613</INCLINATION><RA_OF_ASC_NODE>27.5589</RA_OF_ASC_NODE><ARG_OF_PERICENTER>301.3937</ARG_OF_PERICENTER><MEAN_ANOMALY>58.5153</MEAN_ANOMALY></meanElements><tleParameters><EPHEMERIS_TYPE>0</EPHEMERIS_TYPE><CLASSIFICATION_TYPE>U</CLASSIFICATION_TYPE><NORAD_CAT_ID>40088</NORAD_CAT_ID><ELEMENT_SET_NO>999</ELEMENT_SET_NO><REV_AT_EPOCH>52253</REV_AT_EPOCH><BSTAR>.54628E-3</BSTAR><MEAN_MOTION_DOT>.2913E-4</MEAN_MOTION_DOT><MEAN_MOTION_DDOT>0</MEAN_MOTION_DDOT></tleParameters></data></segment></body></omm>
<omm id="CCSDS_OMM_VERS" version="2.0">
<header><CREATION_DATE/><ORIGINATOR/></header><body><segment><metadata><OBJECT_NAME>ORBCOMM FM111</OBJECT_NAME><OBJECT_ID>2014-040D</OBJECT_ID><CENTER_NAME>EARTH</CENTER_NAME><REF_FRAME>TEME</REF_FRAME><TIME_SYSTEM>UTC</TIME_SYSTEM><MEAN_ELEMENT_THEORY>SGP4</MEAN_ELEMENT_THEORY></metadata><data><meanElements><EPOCH>2024-04-28T13:26:00.445632</EPOCH><MEAN_MOTION>14.81662036</MEAN_MOTION><ECCENTRICITY>.003251</ECCENTRICITY><INCLINATION>47.0032</INCLINATION><RA_OF_ASC_NODE>289.5892</RA_OF_ASC_NODE><ARG_OF_PERICENTER>11.6229</ARG_OF_PERICENTER><MEAN_ANOMALY>348.5409</MEAN_ANOMALY></meanElements><tleParameters><EPHEMERIS_TYPE>0</EPHEMERIS_TYPE><CLASSIFICATION_TYPE>U</CLASSIFICATION_TYPE><NORAD_CAT_ID>40089</NORAD_CAT_ID><ELEMENT_SET_NO>999</ELEMENT_SET_NO><REV_AT_EPOCH>52864</REV_AT_EPOCH><BSTAR>.59667E-3</BSTAR><MEAN_MOTION_DOT>.4582E-4</MEAN_MOTION_DOT><MEAN_MOTION_DDOT>0</MEAN_MOTION_DDOT></tleParameters></data></segment></body></omm>
<omm id="CCSDS_OMM_VERS" version="2.0">
<header><CREATION_DATE/><ORIGINATOR/></header><body><segment><metadata><OBJECT_NAME>ORBCOMM FM104</OBJECT_NAME><OBJECT_ID>2014-040E</OBJECT_ID><CENTER_NAME>EARTH</CENTER_NAME><REF_FRAME>TEME</REF_FRAME><TIME_SYSTEM>UTC</TIME_SYSTEM><MEAN_ELEMENT_THEORY>SGP4</MEAN_ELEMENT_THEORY></metadata><data><meanElements><EPOCH>2024-04-28T11:54:19.859616</EPOCH><MEAN_MOTION>14.55088254</MEAN_MOTION><ECCENTRICITY>.0016162</ECCENTRICITY><INCLINATION>47.0032</INCLINATION><RA_OF_ASC_NODE>202.2298</RA_OF_ASC_NODE><ARG_OF_PERICENTER>112.6762</ARG_OF_PERICENTER><MEAN_ANOMALY>247.5833</MEAN_ANOMALY></meanElements><tleParameters><EPHEMERIS_TYPE>0</EPHEMERIS_TYPE><CLASSIFICATION_TYPE>U</CLASSIFICATION_TYPE><NORAD_CAT_ID>40090</NORAD_CAT_ID><ELEMENT_SET_NO>999</ELEMENT_SET_NO><REV_AT_EPOCH>52019</REV_AT_EPOCH><BSTAR>.40432E-3</BSTAR><MEAN_MOTION_DOT>.1596E-4</MEAN_MOTION_DOT><MEAN_MOTION_DDOT>0</MEAN_MOTION_DDOT></tleParameters></data></segment></body></omm>

</ndm>
